ONEWEB-0549             
1 56051U 23043F   25135.53184449  .00000066  00000+0  12912-3 0  9992
2 56051  87.9246 323.2939 0001666 101.9100 258.2221 13.21828376105691
ONEWEB-0550             
1 56052U 23043G   25135.29215009 -.00000018  00000+0 -74229-4 0  9992
2 56052  87.9242 323.3373 0001868  84.1930 275.9417 13.21827579105662
ONEWEB-0551             
1 56053U 23043H   25135.52751731 -.00000020  00000+0 -87057-4 0  9992
2 56053  87.9053 338.4988 0001560  92.1415 267.9894 13.15549403104117
ONEWEB-0552             
1 56054U 23043J   25134.98304953 -.00000004  00000+0 -41170-4 0  9990
2 56054  87.9243 323.4080 0001490  88.7457 271.3848 13.21823341105623
ONEWEB-0553             
1 56055U 23043K   25135.41385038  .00000009  00000+0 -10144-4 0  9994
2 56055  87.9016 308.0636 0002146  88.4898 271.6479 13.16593210106631
ONEWEB-0554             
1 56056U 23043L   25135.02118274  .00000034  00000+0  54908-4 0  9991
2 56056  87.9014 308.1715 0001757  83.2101 276.9230 13.16593434106569
ONEWEB-0555             
1 56057U 23043M   25135.43917795 -.00000048  00000+0 -15870-3 0  9993
2 56057  87.9016 308.0530 0002345  88.4303 271.7097 13.16593398106621
ONEWEB-0557             
1 56058U 23043N   25135.37743506  .00000067  00000+0  14221-3 0  9992
2 56058  87.9011 308.0889 0002502  75.3469 284.7939 13.16593527106619
